sat08685
1 08685U 75004M   20046.78597703  .00000053  00000-0  24010-4 0  9990
2 08685  97.8145 225.7912 0047829 249.9256 109.6789 14.50017411373588
